$$SOE
2460154.500000000, A.D. 2023-Jul-29 00:00:00.0000, 1.963621033458003E+08, 3.858025648283374E+08, -4.292451203346537E+07,
2460161.500000000, A.D. 2023-Aug-05 00:00:00.0000, 1.865124042165138E+08, 3.904525388570593E+08, -4.352619516364530E+07,
2460168.500000000, A.D. 2023-Aug-12 00:00:00.0000, 1.765527903576676E+08, 3.948720607570392E+08, -4.410217452385309E+07,
2460175.500000000, A.D. 2023-Aug-19 00:00:00.0000, 1.664890529610709E+08, 3.990583461040895E+08, -4.465209074284545E+07,
2460182.500000000, A.D. 2023-Aug-26 00:00:00.0000, 1.563270656132074E+08, 4.030087716529714E+08, -4.517560247373007E+07,
2460189.500000000, A.D. 2023-Sep-02 00:00:00.0000, 1.460727788791760E+08, 4.067208781888529E+08, -4.567238675293717E+07,
2460196.500000000, A.D. 2023-Sep-09 00:00:00.0000, 1.357322147779391E+08, 4.101923730480684E+08, -4.614213934630357E+07,
2460203.500000000, A.D. 2023-Sep-16 00:00:00.0000, 1.253114613280040E+08, 4.134211322443420E+08, -4.658457510163420E+07,
2460210.500000000, A.D. 2023-Sep-23 00:00:00.0000, 1.148166675911211E+08, 4.164052024828196E+08, -4.699942832190369E+07,
2460217.500000000, A.D. 2023-Sep-30 00:00:00.0000, 1.042540388870732E+08, 4.191428042492577E+08, -4.738645303042501E+07,
2460224.500000000, A.D. 2023-Oct-07 00:00:00.0000, 9.362982983908963E+07, 4.216323354258718E+08, -4.774542295578846E+07,
2460231.500000000, A.D. 2023-Oct-14 00:00:00.0000, 8.295033630014132E+07, 4.238723721152630E+08, -4.807613160135373E+07,
2460238.500000000, A.D. 2023-Oct-21 00:00:00.0000, 7.222188940091774E+07, 4.258616682755275E+08, -4.837839256444198E+07,
2460245.500000000, A.D. 2023-Oct-28 00:00:00.0000, 6.145085031055550E+07, 4.275991564247873E+08, -4.865203978985173E+07,
2460252.500000000, A.D. 2023-Nov-04 00:00:00.0000, 5.064360447322672E+07, 4.290839486398400E+08, -4.889692770481065E+07,
2460259.500000000, A.D. 2023-Nov-11 00:00:00.0000, 3.980655550916446E+07, 4.303153372457839E+08, -4.911293129937854E+07,
2460266.500000000, A.D. 2023-Nov-18 00:00:00.0000, 2.894611900991501E+07, 4.312927951319361E+08, -4.929994617689200E+07,
2460273.500000000, A.D. 2023-Nov-25 00:00:00.0000, 1.806871631134780E+07, 4.320159757191285E+08, -4.945788857920140E+07,
2460280.500000000, A.D. 2023-Dec-02 00:00:00.0000, 7.180768284653092E+06, 4.324847125715348E+08, -4.958669539071269E+07,
2460287.500000000, A.D. 2023-Dec-09 00:00:00.0000, -3.711310763554575E+06, 4.326990185986472E+08, -4.968632413387671E+07,
2460294.500000000, A.D. 2023-Dec-16 00:00:00.0000, -1.460111878097488E+07, 4.326590848637994E+08, -4.975675298200007E+07,
2460301.500000000, A.D. 2023-Dec-23 00:00:00.0000, -2.548227088799458E+07, 4.323652796904269E+08, -4.979798076560910E+07,
2460308.500000000, A.D. 2023-Dec-30 00:00:00.0000, -3.634840485226208E+07, 4.318181491196681E+08, -4.981002676433308E+07,
2460315.500000000, A.D. 2024-Jan-06 00:00:00.0000, -4.719318887916094E+07, 4.310184163604319E+08, -4.979293031464298E+07,
2460322.500000000, A.D. 2024-Jan-13 00:00:00.0000, -5.801032853699070E+07, 4.299669784264302E+08, -4.974675067159544E+07,
2460329.500000000, A.D. 2024-Jan-20 00:00:00.0000, -6.879357158613892E+07, 4.286649030530190E+08, -4.967156698604698E+07,
2460336.500000000, A.D. 2024-Jan-27 00:00:00.0000, -7.953671273087168E+07, 4.271134265549964E+08, -4.956747815966541E+07,
2460343.500000000, A.D. 2024-Feb-03 00:00:00.0000, -9.023359871250865E+07, 4.253139516838896E+08, -4.943460261702859E+07,
2460350.500000000, A.D. 2024-Feb-10 00:00:00.0000, -1.008781334580099E+08, 4.232680452015397E+08, -4.927307804514325E+07,
2460357.500000000, A.D. 2024-Feb-17 00:00:00.0000, -1.114642831369244E+08, 4.209774351865745E+08, -4.908306111364453E+07,
2460364.500000000, A.D. 2024-Feb-24 00:00:00.0000, -1.219860810827298E+08, 4.184440080973973E+08, -4.886472717890503E+07,
2460371.500000000, A.D. 2024-Mar-02 00:00:00.0000, -1.324376325417165E+08, 4.156698055680197E+08, -4.861826997845046E+07,
2460378.500000000, A.D. 2024-Mar-09 00:00:00.0000, -1.428131191038182E+08, 4.126570208827127E+08, -4.834390133453009E+07,
2460385.500000000, A.D. 2024-Mar-16 00:00:00.0000, -1.531068024142253E+08, 4.094079953357151E+08, -4.804185088793769E+07,
2460392.500000000, A.D. 2024-Mar-23 00:00:00.0000, -1.633130272647101E+08, 4.059252155948839E+08, -4.771236576313971E+07,
2460399.500000000, A.D. 2024-Mar-30 00:00:00.0000, -1.734262263011032E+08, 4.022113120537713E+08, -4.735570996289125E+07,
2460406.500000000, A.D. 2024-Apr-06 00:00:00.0000, -1.834409260845862E+08, 3.982690548134111E+08, -4.697216379179232E+07,
2460413.500000000, A.D. 2024-Apr-13 00:00:00.0000, -1.933517509525276E+08, 3.941013481368763E+08, -4.656202356631200E+07,
2460420.500000000, A.D. 2024-Apr-20 00:00:00.0000, -2.031534256306143E+08, 3.897112260644601E+08, -4.612560130678566E+07,
2460427.500000000, A.D. 2024-Apr-27 00:00:00.0000, -2.128407781107828E+08, 3.851018486399821E+08, -4.566322431974819E+07,
2460434.500000000, A.D. 2024-May-04 00:00:00.0000, -2.224087427045479E+08, 3.802764980545583E+08, -4.517523473708096E+07,
2460441.500000000, A.D. 2024-May-11 00:00:00.0000, -2.318523630322202E+08, 3.752385746155267E+08, -4.466198904301618E+07,
2460448.500000000, A.D. 2024-May-18 00:00:00.0000, -2.411667948657002E+08, 3.699915925719923E+08, -4.412385759569544E+07,
2460455.500000000, A.D. 2024-May-25 00:00:00.0000, -2.503473088003682E+08, 3.645391757998084E+08, -4.356122414707772E+07,
2460462.500000000, A.D. 2024-Jun-01 00:00:00.0000, -2.593892926969845E+08, 3.588850532984083E+08, -4.297448537229478E+07,
2460469.500000000, A.D. 2024-Jun-08 00:00:00.0000, -2.682882536485161E+08, 3.530330544861541E+08, -4.236405043379480E+07,
2460476.500000000, A.D. 2024-Jun-15 00:00:00.0000, -2.770398190743291E+08, 3.469871048486732E+08, -4.173034057323483E+07,
2460483.500000000, A.D. 2024-Jun-22 00:00:00.0000, -2.856397379500031E+08, 3.407512231251740E+08, -4.107378854397090E+07,
2460490.500000000, A.D. 2024-Jun-29 00:00:00.0000, -2.940838842970603E+08, 3.343295182230229E+08, -4.039483783965249E+07,
2460497.500000000, A.D. 2024-Jul-06 00:00:00.0000, -3.023682602871385E+08, 3.277261833981374E+08, -3.969394216379826E+07,
2460504.500000000, A.D. 2024-Jul-13 00:00:00.0000, -3.104889970121874E+08, 3.209454905300618E+08, -3.897156508804952E+07,
2460511.500000000, A.D. 2024-Jul-20 00:00:00.0000, -3.184423549105456E+08, 3.139917856467788E+08, -3.822817962374303E+07,
2460518.500000000, A.D. 2024-Jul-27 00:00:00.0000, -3.262247245087357E+08, 3.068694847466344E+08, -3.746426772582634E+07,
2460525.500000000, A.D. 2024-Aug-03 00:00:00.0000, -3.338326272106056E+08, 2.995830695481066E+08, -3.668031978549752E+07,
2460532.500000000, A.D. 2024-Aug-10 00:00:00.0000, -3.412627159741638E+08, 2.921370831693345E+08, -3.587683412828463E+07,
2460539.500000000, A.D. 2024-Aug-17 00:00:00.0000, -3.485117758351701E+08, 2.845361257667268E+08, -3.505431652157813E+07,
2460546.500000000, A.D. 2024-Aug-24 00:00:00.0000, -3.555767242552562E+08, 2.767848501182264E+08, -3.421327969736089E+07,
2460553.500000000, A.D. 2024-Aug-31 00:00:00.0000, -3.624546111837265E+08, 2.688879570967669E+08, -3.335424290684080E+07,
2460560.500000000, A.D. 2024-Sep-07 00:00:00.0000, -3.691426184719228E+08, 2.608501911660551E+08, -3.247773153097208E+07,
2460567.500000000, A.D. 2024-Sep-14 00:00:00.0000, -3.756380585595818E+08, 2.526763368990916E+08, -3.158427667393795E+07,
2460574.500000000, A.D. 2024-Sep-21 00:00:00.0000, -3.819383744680340E+08, 2.443712169362535E+08, -3.067441452059595E+07,
2460581.500000000, A.D. 2024-Sep-28 00:00:00.0000, -3.880411415939978E+08, 2.359396881606092E+08, -2.974868567786511E+07,
2460588.500000000, A.D. 2024-Oct-05 00:00:00.0000, -3.939440676376767E+08, 2.273866360960898E+08, -2.880763483668595E+07,
2460595.500000000, A.D. 2024-Oct-12 00:00:00.0000, -3.996449910299583E+08, 2.187169705096756E+08, -2.785181047790574E+07,
2460602.500000000, A.D. 2024-Oct-19 00:00:00.0000, -4.051418796169624E+08, 2.099356219491722E+08, -2.688176448431696E+07,
2460609.500000000, A.D. 2024-Oct-26 00:00:00.0000, -4.104328296408924E+08, 2.010475384189400E+08, -2.589805172201660E+07,
2460616.500000000, A.D. 2024-Nov-02 00:00:00.0000, -4.155160647650958E+08, 1.920576820481209E+08, -2.490122962707963E+07,
2460623.500000000, A.D. 2024-Nov-09 00:00:00.0000, -4.203899350518501E+08, 1.829710257741694E+08, -2.389185780486005E+07,
2460630.500000000, A.D. 2024-Nov-16 00:00:00.0000, -4.250529158722363E+08, 1.737925500437130E+08, -2.287049764440928E+07,
2460637.500000000, A.D. 2024-Nov-23 00:00:00.0000, -4.295036067064625E+08, 1.645272394823795E+08, -2.183771195650666E+07,
2460644.500000000, A.D. 2024-Nov-30 00:00:00.0000, -4.337407296315138E+08, 1.551800794922138E+08, -2.079406465795137E+07,
2460651.500000000, A.D. 2024-Dec-07 00:00:00.0000, -4.377631270816193E+08, 1.457560531981600E+08, -1.974012050619727E+07,
2460658.500000000, A.D. 2024-Dec-14 00:00:00.0000, -4.415697595751590E+08, 1.362601399678079E+08, -1.867644472110598E+07,
2460665.500000000, A.D. 2024-Dec-21 00:00:00.0000, -4.451597057327347E+08, 1.266973142637488E+08, -1.760360238267252E+07,
2460672.500000000, A.D. 2024-Dec-28 00:00:00.0000, -4.485321626201722E+08, 1.170725418624932E+08, -1.652215802821187E+07,
2460679.500000000, A.D. 2025-Jan-04 00:00:00.0000, -4.516864438223771E+08, 1.073907758168114E+08, -1.543267549255153E+07,
2460686.500000000, A.D. 2025-Jan-11 00:00:00.0000, -4.546219770723751E+08, 9.765695381960671E+07, -1.433571768803623E+07,
2460693.500000000, A.D. 2025-Jan-18 00:00:00.0000, -4.573383023580687E+08, 8.787599604899256E+07, -1.323184631524771E+07,
2460700.500000000, A.D. 2025-Jan-25 00:00:00.0000, -4.598350702688205E+08, 7.805280301965326E+07, -1.212162156543273E+07,
2460707.500000000, A.D. 2025-Feb-01 00:00:00.0000, -4.621120403968562E+08, 6.819225340984873E+07, -1.100560183415008E+07,
2460714.500000000, A.D. 2025-Feb-08 00:00:00.0000, -4.641690797392116E+08, 5.829920188270145E+07, -9.884343449509043E+06,
2460721.500000000, A.D. 2025-Feb-15 00:00:00.0000, -4.660061610755874E+08, 4.837847688050335E+07, -8.758400418941274E+06,
$$EOE